NORAD_CAT_ID,OBJECT_NAME,OBJECT_TYPE,EPOCH,MEAN_MOTION,ECCENTRICITY,INCLINATION,RA_OF_ASC_NODE,ARG_OF_PERICENTER,MEAN_ANOMALY,BSTAR,MEAN_MOTION_DOT,MEAN_MOTION_DDOT,TLE_LINE0,TLE_LINE1,TLE_LINE2,SEMIMAJOR_AXIS,PERIOD,APOGEE,PERIGEE,DECAYED
49158.0,STARLINK-3083,PAYLOAD,2023-11-04 08:23:25,15.03095552,0.0003002,69.998,272.1055,314.8499,45.2418,0.0017374,0.00023465,0.0,0 STARLINK-3083,1 49158U 21082AE  23308.34960608  .00023465  00000-0  17374-2 0  9996,2 49158  69.9980 272.1055 0003002 314.8499  45.2418 15.03095552119331,6935.495,95.802,559.442,555.278,0.0
49158.0,STARLINK-3083,PAYLOAD,2023-11-04 22:45:53,15.0313347,0.0002943,69.9979,270.584,312.6317,47.4596,0.0022272,0.00030167,0.0,0 STARLINK-3083,1 49158U 21082AE  23308.94853388  .00030167  00000-0  22272-2 0  9998,2 49158  69.9979 270.5840 0002943 312.6317  47.4596 15.03133470119424,6935.378,95.8,559.284,555.202,0.0
49158.0,STARLINK-3083,PAYLOAD,2023-11-05 03:33:22,15.03145829,0.0002941,69.9978,270.0769,312.5108,47.5805,0.0023438,0.00031769,0.0,0 STARLINK-3083,1 49158U 21082AE  23309.14817312  .00031769  00000-0  23438-2 0  9992,2 49158  69.9978 270.0769 0002941 312.5108  47.5805 15.03145829119451,6935.34,95.799,559.245,555.165,0.0
49158.0,STARLINK-3083,PAYLOAD,2023-11-05 08:20:50,15.03164727,0.0002934,69.9979,269.5696,313.4318,46.6599,0.0027296,0.00037061,0.0,0 STARLINK-3083,1 49158U 21082AE  23309.34780991  .00037061  00000-0  27296-2 0  9993,2 49158  69.9979 269.5696 0002934 313.4318  46.6599 15.03164727119480,6935.282,95.798,559.182,555.112,0.0
49158.0,STARLINK-3083,PAYLOAD,2023-11-05 22:43:15,15.03236259,0.0002872,69.9978,268.0479,310.9766,49.1147,0.0044617,0.00060961,0.0,0 STARLINK-3083,1 49158U 21082AE  23309.94670493  .00060961  00000-0  44617-2 0  9995,2 49158  69.9978 268.0479 0002872 310.9766  49.1147 15.03236259119579,6935.062,95.793,558.919,554.935,0.0
49158.0,STARLINK-3083,PAYLOAD,2023-11-06 03:30:42,15.03262582,0.0002855,69.9978,267.5411,311.1585,48.933,0.0048429,0.00066274,0.0,0 STARLINK-3083,1 49158U 21082AE  23310.14632984  .00066274  00000-0  48429-2 0  9990,2 49158  69.9978 267.5411 0002855 311.1585  48.9330 15.03262582119605,6934.981,95.792,558.826,554.866,0.0
49158.0,STARLINK-3083,PAYLOAD,2023-11-06 06:42:21,15.03271397,0.0002834,69.9978,267.203,311.4082,48.6835,0.0043245,0.00059123,0.0,0 STARLINK-3083,1 49158U 21082AE  23310.27941245  .00059123  00000-0  43245-2 0  9993,2 49158  69.9978 267.2030 0002834 311.4082  48.6835 15.03271397119624,6934.954,95.791,558.784,554.854,0.0
49158.0,STARLINK-3083,PAYLOAD,2023-11-06 14:41:26,15.03302364,0.0002806,69.9978,266.3575,310.2521,49.8395,0.0037008,0.00050562,0.0,0 STARLINK-3083,1 49158U 21082AE  23310.61211217  .00050562  00000-0  37008-2 0  9998,2 49158  69.9978 266.3575 0002806 310.2521  49.8395 15.03302364119670,6934.859,95.789,558.67,554.778,0.0
49158.0,STARLINK-3083,PAYLOAD,2023-11-06 22:40:31,15.03324171,0.0002805,69.9979,265.5124,309.9766,50.1149,0.0026931,0.00036717,0.0,0 STARLINK-3083,1 49158U 21082AE  23310.94480560  .00036717  00000-0  26931-2 0  9992,2 49158  69.9979 265.5124 0002805 309.9766  50.1149 15.03324171119725,6934.792,95.788,558.602,554.711,0.0
49158.0,STARLINK-3083,PAYLOAD,2023-11-07 03:27:57,15.03340315,0.0002811,69.9977,265.0053,309.6904,50.401,0.0027635,0.000377,0.0,0 STARLINK-3083,1 49158U 21082AE  23311.14441903  .00037700  00000-0  27635-2 0  9998,2 49158  69.9977 265.0053 0002811 309.6904  50.4010 15.03340315119758,6934.742,95.787,558.556,554.658,0.0
49158.0,STARLINK-3083,PAYLOAD,2023-11-07 06:39:35,15.03354422,0.0002805,69.9979,264.667,309.2037,50.8876,0.0029908,0.00040843,0.0,0 STARLINK-3083,1 49158U 21082AE  23311.27749301  .00040843  00000-0  29908-2 0  9992,2 49158  69.9979 264.6670 0002805 309.2037  50.8876 15.03354422119776,6934.699,95.786,558.509,554.618,0.0
49158.0,STARLINK-3083,PAYLOAD,2023-11-08 06:36:45,15.03423205,0.0002789,69.998,262.13,306.4376,53.6528,0.0025569,0.00034938,0.0,0 STARLINK-3083,1 49158U 21082AE  23312.27552387  .00034938  00000-0  25569-2 0  9996,2 49158  69.9980 262.1300 0002789 306.4376  53.6528 15.03423205119925,6934.487,95.781,558.286,554.418,0.0
49158.0,STARLINK-3083,PAYLOAD,2023-11-08 22:34:49,15.03468433,0.0002749,69.9983,260.4385,304.7625,55.3277,0.0023142,0.00031635,0.0,0 STARLINK-3083,1 49158U 21082AE  23312.94085196  .00031635  00000-0  23142-2 0  9995,2 49158  69.9983 260.4385 0002749 304.7625  55.3277 15.03468433120021,6934.348,95.779,558.119,554.307,0.0
49158.0,STARLINK-3083,PAYLOAD,2023-11-09 06:33:51,15.03494309,0.0002756,69.9985,259.5932,305.324,54.7663,0.0026123,0.00035769,0.0,0 STARLINK-3083,1 49158U 21082AE  23313.27350831  .00035769  00000-0  26123-2 0  9997,2 49158  69.9985 259.5932 0002756 305.3240  54.7663 15.03494309120076,6934.268,95.777,558.045,554.222,0.0
49158.0,STARLINK-3083,PAYLOAD,2023-11-09 22:31:52,15.03536156,0.0002741,69.9984,257.9017,304.7236,55.3668,0.0022457,0.00030748,0.0,0 STARLINK-3083,1 49158U 21082AE  23313.93880633  .00030748  00000-0  22457-2 0  9996,2 49158  69.9984 257.9017 0002741 304.7236  55.3668 15.03536156120173,6934.14,95.774,557.905,554.104,0.0
49158.0,STARLINK-3083,PAYLOAD,2023-11-10 03:19:17,15.03549444,0.0002733,69.9985,257.3944,304.3007,55.7896,0.0023812,0.00032629,0.0,0 STARLINK-3083,1 49158U 21082AE  23314.13839209  .00032629  00000-0  23812-2 0  9998,2 49158  69.9985 257.3944 0002733 304.3007  55.7896 15.03549444120205,6934.099,95.773,557.859,554.069,0.0
49158.0,STARLINK-3083,PAYLOAD,2023-11-10 06:30:53,15.03558795,0.0002732,69.9986,257.056,304.2465,55.8438,0.0023615,0.00032365,0.0,0 STARLINK-3083,1 49158U 21082AE  23314.27144797  .00032365  00000-0  23615-2 0  9992,2 49158  69.9986 257.0560 0002732 304.2465  55.8438 15.03558795120227,6934.07,95.773,557.83,554.041,0.0
49158.0,STARLINK-3083,PAYLOAD,2023-11-11 06:27:51,15.03621707,0.0002645,69.9987,254.5191,303.6864,56.4046,0.0022036,0.00030236,0.0,0 STARLINK-3083,1 49158U 21082AE  23315.26934469  .00030236  00000-0  22036-2 0  9996,2 49158  69.9987 254.5191 0002645 303.6864  56.4046 15.03621707120371,6933.877,95.769,557.576,553.908,0.0
49158.0,STARLINK-3083,PAYLOAD,2023-11-11 12:51:02,15.03636325,0.0002628,69.9988,253.8426,303.8245,56.2666,0.0020551,0.00028194,0.0,0 STARLINK-3083,1 49158U 21082AE  23315.53544383  .00028194  00000-0  20551-2 0  9998,2 49158  69.9988 253.8426 0002628 303.8245  56.2666 15.03636325120414,6933.832,95.768,557.519,553.875,0.0
49158.0,STARLINK-3083,PAYLOAD,2023-11-11 22:25:48,15.03656396,0.0002583,69.9988,252.8279,302.9393,57.152,0.0018008,0.00024694,0.0,0 STARLINK-3083,1 49158U 21082AE  23315.93458775  .00024694  00000-0  18008-2 0  9996,2 49158  69.9988 252.8279 0002583 302.9393  57.1520 15.03656396120478,6933.77,95.767,557.426,553.844,0.0
49158.0,STARLINK-3083,PAYLOAD,2023-11-12 12:47:56,15.03695609,0.0002491,69.999,251.3052,303.3604,56.7319,0.0024993,0.00034394,0.0,0 STARLINK-3083,1 49158U 21082AE  23316.53329286  .00034394  00000-0  24993-2 0  9995,2 49158  69.9990 251.3052 0002491 303.3604  56.7319 15.03695609120563,6933.65,95.764,557.242,553.787,0.0
49158.0,STARLINK-3083,PAYLOAD,2023-11-12 22:22:41,15.03716066,0.0002505,69.999,250.2903,304.2752,55.8172,0.0021497,0.00029565,0.0,0 STARLINK-3083,1 49158U 21082AE  23316.93242161  .00029565  00000-0  21497-2 0  9995,2 49158  69.9990 250.2903 0002505 304.2752  55.8172 15.03716066120621,6933.587,95.763,557.189,553.715,0.0
49158.0,STARLINK-3083,PAYLOAD,2023-11-13 12:44:47,15.0375699,0.0002422,69.9989,248.7679,302.5841,57.5086,0.0023141,0.00031878,0.0,0 STARLINK-3083,1 49158U 21082AE  23317.53110111  .00031878  00000-0  23141-2 0  9999,2 49158  69.9989 248.7679 0002422 302.5841  57.5086 15.03756990120712,6933.461,95.76,557.005,553.647,0.0
49158.0,STARLINK-3083,PAYLOAD,2023-11-14 04:42:38,15.03794516,0.0002357,69.9991,247.0767,302.0741,58.0192,0.0019295,0.00026571,0.0,0 STARLINK-3083,1 49158U 21082AE  23318.19628360  .00026571  00000-0  19295-2 0  9991,2 49158  69.9991 247.0767 0002357 302.0741  58.0192 15.03794516120817,6933.346,95.758,556.845,553.576,0.0
49158.0,STARLINK-3083,PAYLOAD,2023-11-15 04:39:24,15.03851562,0.000295,69.9992,244.5397,327.9375,32.1607,0.0018835,0.00025973,0.0,0 STARLINK-3083,1 49158U 21082AE  23319.19402868  .00025973  00000-0  18835-2 0  9999,2 49158  69.9992 244.5397 0002950 327.9375  32.1607 15.03851562120962,6933.17,95.754,557.08,552.99,0.0
49158.0,STARLINK-3083,PAYLOAD,2023-11-15 19:01:25,15.03889394,0.0002013,69.9988,243.0159,298.5989,61.497,0.0019735,0.0002725,0.0,0 STARLINK-3083,1 49158U 21082AE  23319.79265151  .00027250  00000-0  19735-2 0  9997,2 49158  69.9988 243.0159 0002013 298.5989  61.4970 15.03889394121054,6933.054,95.752,556.315,553.523,0.0
49158.0,STARLINK-3083,PAYLOAD,2023-11-16 04:36:05,15.03906352,0.0002236,69.9991,242.002,299.1817,60.9121,0.0017903,0.00024714,0.0,0 STARLINK-3083,1 49158U 21082AE  23320.19172917  .00024714  00000-0  17903-2 0  9997,2 49158  69.9991 242.0020 0002236 299.1817  60.9121 15.03906352121111,6933.002,95.751,556.417,553.317,0.0
49158.0,STARLINK-3083,PAYLOAD,2023-11-17 02:56:57,15.03966303,0.0001966,70.001,239.6342,300.6648,59.432,0.002702,0.00037476,0.0,0 STARLINK-3083,1 49158U 21082AE  23321.12288959  .00037476  00000-0  27020-2 0  9995,2 49158  70.0010 239.6342 0001966 300.6648  59.4320 15.03966303121255,6932.818,95.747,556.046,553.32,0.0
49158.0,STARLINK-3083,PAYLOAD,2023-11-17 04:32:44,15.03958062,0.000224,69.9991,239.4641,296.9051,63.1882,0.0018374,0.00025404,0.0,0 STARLINK-3083,1 49158U 21082AE  23321.18939928  .00025404  00000-0  18374-2 0  9990,2 49158  69.9991 239.4641 0002240 296.9051  63.1882 15.03958062121260,6932.843,95.747,556.261,553.155,0.0
49158.0,STARLINK-3083,PAYLOAD,2023-11-17 12:31:36,15.03967424,0.0002302,69.9983,238.6183,295.4638,64.6285,0.0013706,0.00018912,0.0,0 STARLINK-3083,1 49158U 21082AE  23321.52194934  .00018912  00000-0  13706-2 0  9998,2 49158  69.9983 238.6183 0002302 295.4638  64.6285 15.03967424121318,6932.814,95.747,556.275,553.083,0.0
